TEVEL2-4                
1 63213U 25052D   26068.69417973  .00020990  00000+0  70363-3 0  9998
2 63213  97.4009 325.1237 0004733  95.3468 264.8313 15.30925813 54879
STARLINK-34603          
1 65220U 25176Y   26068.51923312  .00027017  00000+0  92132-3 0  9990
2 65220  53.1574 153.5708 0001343  71.6489 288.4657 15.30187827 33094
